INTELSAT 23 (IS-23)     
1 38867U 12057A   26194.31641906 -.00000288  00000+0  00000+0 0  9996
2 38867   0.0135  19.9646 0000319 172.9508 159.1922  1.00274015 50210
FM-6                    
1 39360U 13058A   26193.61120086 -.00000014  00000+0  00000+0 0  9997
2 39360   0.0177  43.8724 0001048 136.9706 213.3301  1.00266064 46324
INTELSAT 30 (IS-30)     
1 40271U 14062A   26193.82918095 -.00000152  00000+0  00000+0 0  9997
2 40271   0.0165  46.9734 0001199 336.3929 110.8103  1.00273200  7057
DIRECTV 14              
1 40333U 14078B   26194.18487453 -.00000127  00000+0  00000+0 0  9994
2 40333   0.0147  48.5403 0000254 253.7402 316.0900  1.00270023 42308
DIRECTV 15              
1 40663U 15026A   26193.61388753 -.00000102  00000+0  00000+0 0  9997
2 40663   0.0184  70.9457 0000098 201.8573 135.8290  1.00272075 40713
SKY MEXICO-1            
1 40664U 15026B   26194.32752903 -.00000237  00000+0  00000+0 0  9998
2 40664   0.0163  21.9998 0002332 113.5664 194.7487  1.00270516 40710
INTELSAT 34 (IS-34)     
1 40874U 15039A   26194.10409780 -.00000287  00000+0  00000+0 0  9998
2 40874   0.0107   1.3438 0000492 353.9217 277.7081  1.00271511 39896
INTELSAT 31 (IS-31)     
1 41581U 16035A   26194.18574119 -.00000153  00000+0  00000+0 0  9990
2 41581   0.0160 289.2103 0001138 354.6494 339.0259  1.00271434 36946
INTELSAT 36 (IS-36)     
1 41747U 16053A   26194.19261205 -.00000026  00000+0  00000+0 0  9993
2 41747   0.0101  19.2212 0002509 321.3392  88.3368  1.00270041 36216
INTELSAT 32E (IS-32E)   
1 41945U 17007B   26194.12470718  .00000000  00000+0  00000+0 0  9998
2 41945   0.0250  44.8942 0000425 284.8742 322.9651  1.00269412 34481
INTELSAT 35E (IS-35E)   
1 42818U 17041A   26193.91256185 -.00000239  00000+0  00000+0 0  9997
2 42818   0.0167  45.3733 0001581  65.1012 114.3450  1.00269769 33075
INTELSAT 37E (IS-37E)   
1 42950U 17059A   26194.03377860 -.00000143  00000+0  00000+0 0  9995
2 42950   0.0156  71.5028 0002484  47.5543 166.0149  1.00270449 32327
AZERSPACE 2 (IS-38)     
1 43632U 18074A   26194.21345949  .00000000  00000+0  00000+0 0  9995
2 43632   0.0255  43.1522 0001215  78.6553 291.2528  1.00269706 28709
HORIZONS-3E             
1 43633U 18074B   26194.09532420 -.00000033  00000+0  00000+0 0  9991
2 43633   0.0482 223.1894 0000975  65.1377 205.9637  1.00269520 28607
AT&T T-16               
1 44333U 19034A   26194.18461453 -.00000117  00000+0  00000+0 0  9996
2 44333   0.0150  54.0006 0000677 266.6085 296.0604  1.00269295 25898
INTELSAT 39 (IS-39)     
1 44476U 19049B   26194.21683950  .00000000  00000+0  00000+0 0  9992
2 44476   0.0265  47.3312 0000942 280.2258 103.5572  1.00269557 25388
GALAXY 30 (G-30)        
1 46114U 20056C   26194.23586505  .00000034  00000+0  00000+0 0  9990
2 46114   0.0181  35.4758 0001953  79.1056 136.4367  1.00271193 21553
GALAXY 33 (G-33)        
1 54026U 22128A   26194.27584255  .00000076  00000+0  00000+0 0  9993
2 54026   0.0139  20.7800 0001758  99.2510 137.4242  1.00271487 14004
GALAXY 34 (G-34)        
1 54027U 22128B   26193.96516197  .00000000  00000+0  00000+0 0  9996
2 54027   0.0243  20.8122 0001453 119.7956   8.7058  1.00273632 14170
GALAXY 31 (G-31)        
1 54243U 22153A   26194.25191514  .00000011  00000+0  00000+0 0  9991
2 54243   0.0182  65.6448 0000950  53.7149 141.4445  1.00270644  7393
GALAXY 32 (G-32)        
1 54244U 22153B   26194.11523328 -.00000176  00000+0  00000+0 0  9992
2 54244   0.0124  24.1776 0001454  22.4936 194.8053  1.00270119 13404
GALAXY 35 (G-35)        
1 54741U 22170A   26194.33531355  .00000000  00000+0  00000+0 0  9991
2 54741   0.0244  63.0238 0001904  53.9930 201.8076  1.00268735 13154
GALAXY 36 (G-36)        
1 54742U 22170B   26193.83039429 -.00000186  00000+0  00000+0 0  9997
2 54742   0.0298 108.9509 0002341 351.1655  40.5435  1.00270917 13036
GALAXY 37 (G-37)        
1 57493U 23112A   26194.24114220  .00000046  00000+0  00000+0 0  9993
2 57493   0.0200  71.4722 0001742  45.6328 133.8199  1.00271113 10806
